RED-EYE 1 (PINOT)       
1 44364U 98067QJ  20349.22367761  .00005436  00000-0  82861-4 0  9990
2 44364  51.6388 162.3682 0006129 269.5114  90.5175 15.56219840 83311
IOD-1 GEMS              
1 44385U 98067QK  20349.56926916  .00057621  00000-0  44388-3 0  9997
2 44385  51.6353 141.4107 0003621 270.8713  89.1870 15.71402312 82680
SWIATOWID               
1 44426U 98067QL  20349.98776826  .00089630  00000-0  59507-3 0  9996
2 44426  51.6361 136.4358 0004442 265.5329 194.8797 15.74706152 82799
KRAKSAT                 
1 44427U 98067QM  20349.97477231  .00017698  00000-0  22096-3 0  9992
2 44427  51.6406 152.9679 0003066 252.0248 196.3359 15.59940843 82613
VCC A                   
1 44428U 98067QN  20349.73182322  .00024896  00000-0  27748-3 0  9998
2 44428  51.6363 150.0231 0002548 270.7509  89.3193 15.62663916 82636
ENTRYSAT                
1 44429U 98067QP  20349.72296205  .00031628  00000-0  31870-3 0  9996
2 44429  51.6335 146.8998 0002711 263.2045  96.8642 15.65097346 82670
VCC C                   
1 44430U 98067QQ  20349.86246446  .00044793  00000-0  38971-3 0  9991
2 44430  51.6343 142.5807 0002669 271.3656  88.7035 15.68576204 81564
VCC B                   
1 44431U 98067QR  20350.17040422  .00025387  00000-0  28095-3 0  9998
2 44431  51.6344 147.6595 0002722 273.3826  86.6857 15.62834016 82648
ISS DEB                 
1 44788U 98067QT  20350.16134387  .00046935  00000-0  46845-3 0  9991
2 44788  51.6359 154.3494 0004314 283.6757  76.3758 15.65142872 61589
ISS DEB                 
1 44789U 98067QU  20349.18136691  .00042356  00000-0  44929-3 0  9996
2 44789  51.6356 160.5801 0004850 287.3530  72.6934 15.63643090 61405
RWASAT-1                
1 44790U 98067QV  20350.22660417  .00010309  00000-0  15478-3 0  9993
2 44790  51.6398 162.6883 0006792 329.0919 201.7389 15.55507559 60732
AQT-D                   
1 44791U 98067QW  20349.91612053  .00010567  00000-0  15849-3 0  9999
2 44791  51.6397 164.7720 0005935 296.6973  63.3410 15.55508331 60682
NARSSCUBE-1             
1 44792U 98067QX  20349.94116343  .00018032  00000-0  24241-3 0  9995
2 44792  51.6367 161.8856 0004052 313.4164  46.6490 15.57953541 60723
STPSAT-4                
1 45043U 98067QY  20350.02259796  .00005867  00000-0  10443-3 0  9997
2 45043  51.6392 171.4160 0004827 314.7416  45.3181 15.51678735 49846
HARP                    
1 45256U 98067QZ  20349.97263563  .00007571  00000-0  12205-3 0  9994
2 45256  51.6397 168.8640 0006438 304.4994  55.5388 15.53993307 46540
1998-067RA              
1 45257U 98067RA  20349.21887791  .00008573  00000-0  13921-3 0  9996
2 45257  51.6383 172.8107 0006827 304.4663  55.5682 15.53586126 46425
PHOENIX                 
1 45258U 98067RB  20350.22385654  .00008148  00000-0  13505-3 0  9997
2 45258  51.6384 168.2603 0005286 287.8186  72.2228 15.53096947 46541
